COSMOS 2543             
1 44835U 19079D   21349.68050984  .00001703  00000-0  64029-4 0  9995
2 44835  97.7922  47.9045 0094190   2.7873 357.3868 15.24673606109731
JILIN-01 GAOFEN 2B      
1 44836U 19086A   21349.47407785 -.00004521  00000-0 -27486-3 0  9994
2 44836  97.4442  48.1648 0009358 265.8084 224.0692 15.09960777111544
2019-087A               
1 44838U 19087A   21349.50121326  .00002703  00000-0  11433-3 0  9998
2 44838  97.4586 145.0175 0012053 185.5366 245.6932 15.24026314112425
2019-087B               
1 44839U 19087B   21349.46246934  .00001758  00000-0  77550-4 0  9999
2 44839  97.4555 144.4418 0012127 188.3338 256.7567 15.23052634112405
2019-087C               
1 44840U 19087C   21349.47319144  .00002172  00000-0  94199-4 0  9995
2 44840  97.4629 145.4172 0011354 189.2381 247.6433 15.23392956112423
2019-087D               
1 44841U 19087D   21349.48315563  .00005283  00000-0  19855-3 0  9999
2 44841  97.4411 145.9111 0009403 176.0283 268.0603 15.27564309112544
2019-087E               
1 44842U 19087E   21349.49490560  .00002041  00000-0  87993-4 0  9990
2 44842  97.4524 144.6239 0010820 190.4208 241.2941 15.23669862112442
2019-087F               
1 44843U 19087F   21349.49535333  .00001516  00000-0  66909-4 0  9999
2 44843  97.4587 145.0338 0012354 200.8947 231.4784 15.23263124112422
COSMOS 2544 [GLONASS-M] 
1 44850U 19088A   21349.60640824  .00000028  00000-0  00000-0 0  9996
2 44850  64.9168 128.8580 0010129 253.1389   3.5154  2.13102298 15656
TYVAK-0092              
1 44852U 19089A   21349.56048422  .00001496  00000-0  12148-3 0  9999
2 44852  36.9650 104.7210 0005886 209.0789 150.9626 15.00881294110303
TYVAK-0129              
1 44853U 19089B   21349.53376710  .00001611  00000-0  13100-3 0  9999
2 44853  36.9651 106.3494 0005628 197.2003 162.8549 15.00682271110397
DUCHIFAT-3              
1 44854U 19089C   21349.56385127  .00000732  00000-0  64300-4 0  9997
2 44854  36.9637 109.3326 0006814 172.9240 187.1600 14.99853260110304
LEMUR-2-JPGSQUARED      
1 44855U 19089D   21349.54919419  .00000747  00000-0  64739-4 0  9995
2 44855  36.9658 109.2621 0004893 168.5054 191.5800 15.00310341110362
QPS-SAR-1 IZANAGI       
1 44856U 19089E   21349.49491338  .00001066  00000-0  91265-4 0  9994
2 44856  36.9651 113.4414 0003654 130.6678 229.4400 14.99624236110319
RISAT-2BR1              
1 44857U 19089F   21349.46311779  .00000289  00000-0  30363-4 0  9990
2 44857  36.9622 118.4788 0005528 111.8529 248.2827 14.98218747110255
2019-089G               
1 44858U 19089G   21349.54049024  .00001905  00000-0  15784-3 0  9996
2 44858  36.9679 113.9270 0003758 114.5244 245.5890 14.99681595110314
IHOPSAT-TD              
1 44859U 19089H   21349.50209686  .00000301  00000-0  30994-4 0  9995
2 44859  36.9705 115.5936 0005143 144.3626 215.7460 14.98694845110220
LEMUR-2-HIMOMANDDAD     
1 44860U 19089J   21349.50067952  .00002094  00000-0  17081-3 0  9997
2 44860  36.9657 110.7064 0005014 159.0353 201.0595 15.00148569110222
LEMUR-2-PAPPY           
1 44861U 19089K   21349.54728752  .00001948  00000-0  15922-3 0  9993
2 44861  36.9655 110.1456 0005077 162.1821 197.9099 15.00162166110292
LEMUR-2-THEODOSIA       
1 44863U 19089M   21349.51924157  .00000699  00000-0  61095-4 0  9994
2 44863  36.9651 109.9108 0005214 165.9814 194.1073 15.00228310110202
BEIDOU-3 M19            
1 44864U 19090A   21349.13346569 -.00000003  00000-0  00000-0 0  9995
2 44864  55.3117 117.7727 0014788 262.8988  22.2287  1.86231735 13590
BEIDOU-3 M20            
1 44865U 19090B   21349.37606282 -.00000005  00000-0  00000-0 0  9995
2 44865  55.3149 117.7945 0012970 278.7199 258.9514  1.86231659 13573
JCSAT-18 (KACIFIC 1)    
1 44868U 19091A   21349.46153676 -.00000185  00000-0  00000-0 0  9992
2 44868   0.0325 149.9895 0001080 143.0494 107.4310  1.00270327  7523
CSG-1                   
1 44873U 19092A   21349.49477506  .00000301  00000-0  44308-4 0  9995
2 44873  97.8816 170.8342 0001317  77.2705 282.8663 14.82160228107852
CHEOPS                  
1 44874U 19092B   21349.54719017  .00000043  00000-0  19765-4 0  9990
2 44874  98.2341 173.6739 0010867 178.5763 181.5468 14.56893145106018
ANGELS                  
1 44876U 19092D   21349.48181802  .00000652  00000-0  36355-4 0  9990
2 44876  97.4677 170.3615 0010825 278.8667  81.1341 15.17010027110345
EYESAT-NANO             
1 44877U 19092E   21349.44346478  .00002663  00000-0  13029-3 0  9995
2 44877  97.4591 170.6668 0011402 280.4661  79.5289 15.19022546110407
OPS-SAT                 
1 44878U 19092F   21349.47174166  .00001721  00000-0  89757-4 0  9998
2 44878  97.4746 170.4634 0012092 260.2559  99.7309 15.17258926110272
2019-093A               
1 44879U 19093A   21349.43863227  .00000281  00000-0  42310-4 0  9993
2 44879  97.9138  66.3195 0016385  65.4658 294.8257 14.81746975107544
2019-093B               
1 44880U 19093B   21349.50549880  .00000229  00000-0  35741-4 0  9991
2 44880  97.9142  66.4101 0016458  66.4328 293.8607 14.81758367107541
CAS-6 (TIANQIN 1)       
1 44881U 19093C   21349.47730361  .00000086  00000-0  17657-4 0  9991
2 44881  97.9114  66.2054 0016431  66.8334 293.4614 14.81521856107532
2019-093D               
1 44882U 19093D   21349.44851454  .00000362  00000-0  52352-4 0  9994
2 44882  97.9182  66.8288 0017480  67.5112 292.7954 14.81956987107547
CBERS 4A                
1 44883U 19093E   21349.50250129  .00000146  00000-0  25301-4 0  9998
2 44883  97.9131  66.4071 0001890  77.9085 282.2335 14.81540671107557
2019-093F               
1 44884U 19093F   21349.49880195  .00000324  00000-0  47201-4 0  9990
2 44884  97.9123  66.7173 0015044  71.7257 288.5583 14.82248479107572
FLORIPASAT-1            
1 44885U 19093G   21349.45538632  .00000368  00000-0  52395-4 0  9991
2 44885  97.9139  67.0639 0015870  74.4693 285.8275 14.82502682107580
2019-093H               
1 44886U 19093H   21349.44052153  .00000241  00000-0  36474-4 0  9990
2 44886  97.9166  67.5736 0016552  78.7070 281.5997 14.82709942107603
2019-093J               
1 44887U 19093J   21349.46014631  .00000172  00000-0  27917-4 0  9997
2 44887  97.9153  67.4742 0016534  78.4007 281.9075 14.82617901107607
ELEKTRO-L 3             
1 44903U 19095A   21349.44679687 -.00000081  00000-0  00000-0 0  9994
2 44903   0.0672 141.7720 0001751 134.7372  44.6471  1.00272244  7229
GONETS-M 14             
1 44905U 19096A   21349.48984463  .00000000  00000-0 -69962-4 0  9999
2 44905  82.5270  24.2803 0014959 139.8574 220.3614 12.42877662 89383
GONETS-M 15             
1 44906U 19096B   21349.43605127  .00000013  00000-0  22768-4 0  9998
2 44906  82.5292  24.4908 0016301 162.1522 198.0132 12.42877749 89361
GONETS-M 16             
1 44907U 19096C   21349.46013669  .00000025  00000-0  10968-3 0  9997
2 44907  82.5234  24.1707 0011479 200.1497 159.9131 12.42871152 89364
RS-44 & BREEZE-KM R/B   
1 44909U 19096E   21349.46314366  .00000037  00000-0  10261-3 0  9996
2 44909  82.5212 352.5374 0217989  30.1885 331.1570 12.79711527 91976
SHIJIAN-20 (SJ-20)      
1 44910U 19097A   21349.65753014 -.00000192  00000-0  00000+0 0  9996
2 44910   0.7097  93.4089 0002187 295.8688  19.4802  1.00275279  7206
STARLINK-1073           
1 44914U 20001A   21349.53339266  .00000086  00000-0  24641-4 0  9996
2 44914  53.0544  83.0978 0001270 104.3375 255.7755 15.06399579106954
STARLINK-1084           
1 44915U 20001B   21349.56288052 -.00000173  00000-0  73019-5 0  9998
2 44915  53.0540  82.9646 0001160  86.9986 273.1136 15.06401631106963
STARLINK-1098           
1 44917U 20001D   21349.56656049  .00001047  00000-0  89140-4 0  9996
2 44917  53.0545  82.9526 0000992  95.7404 264.3698 15.06399130106967
STARLINK-1099           
1 44918U 20001E   21349.51128257 -.00000580  00000-0 -20043-4 0  9997
2 44918  53.0555  83.2062 0001080  92.3443 267.7670 15.06398828107694
STARLINK-1102           
1 44920U 20001G   21349.52602229 -.00000611  00000-0 -22120-4 0  9990
2 44920  53.0552  83.1300 0001249  94.1218 265.9913 15.06394528106956
STARLINK-1103           
1 44921U 20001H   21349.54813864 -.00000274  00000-0  47844-6 0  9998
2 44921  53.0496  83.0474 0001137  67.5370 292.5739 15.06393865106937
STARLINK-1104           
1 44922U 20001J   21349.44862107 -.00000419  00000-0 -92177-5 0  9992
2 44922  53.0538  83.4747 0001156  94.4578 265.6543 15.06396881106948
STARLINK-1106           
1 44923U 20001K   21349.54076303 -.00000412  00000-0 -87726-5 0  9996
2 44923  53.0540  83.0623 0001253  99.7823 260.3307 15.06398564106951
STARLINK-1111           
1 44924U 20001L   21349.52970791 -.00000221  00000-0  40436-5 0  9993
2 44924  53.0552  83.1132 0001204  86.5581 273.5546 15.06398633106950
STARLINK-1112           
1 44925U 20001M   21349.54444529  .00001163  00000-0  96965-4 0  9993
2 44925  53.0548  83.0420 0001192  90.7021 269.4104 15.06404471106959
STARLINK-1113           
1 44926U 20001N   21349.52088549 -.00000696  00000-0 -28601-4 0  9992
2 44926  53.0002  83.1554 0001299  92.0532 268.0604 15.05577572107676
STARLINK-1114           
1 44927U 20001P   21349.55550430  .00000918  00000-0  80491-4 0  9999
2 44927  53.0547  82.9919 0001229  87.1223 272.9907 15.06398517106960
STARLINK-1119           
1 44928U 20001Q   21349.55181707  .00001532  00000-0  12171-3 0  9999
2 44928  53.0561  83.0247 0001150  90.7766 269.3355 15.06400716106960
STARLINK-1121           
1 44929U 20001R   21349.53707076  .00001246  00000-0  10253-3 0  9992
2 44929  53.0546  83.0726 0001235  95.2474 264.8655 15.06404200106950
STARLINK-1123           
1 44930U 20001S   21349.57025003  .00000258  00000-0  36228-4 0  9994
2 44930  53.0542  82.9343 0001067  96.7677 263.3433 15.06405158106967
STARLINK-1128           
1 44931U 20001T   21349.51104593  .00003331  00000-0  22471-3 0  9990
2 44931  53.0536  82.7998 0001342  70.2025 289.9110 15.09270401107708
